     2.100          NAVIGATION                              RINEX VERSION / TYPE
fic2rin                                 11/10/2011 00:15:29 PGM / RUN BY / DATE
                                                            END OF HEADER
30 11 11  9 18  0  0.0  .525279901922D-04 -.898126018001D-11  .000000000000D+00
     .187000000000D+03 -.868750000000D+01  .434553815196D-08 -.138855290769D+01
    -.212341547012D-06  .116311998572D-01  .113751739264D-04  .515544751167D+04
     .324000000000D+06 -.800937414169D-07  .210027564491D+00  .298023223877D-06
     .957707292033D+00  .158875000000D+03  .158369989331D+01 -.789747181854D-08
     .547879964257D-09  .100000000000D+01  .166100000000D+04  .000000000000D+00
     .965000000000D+01  .000000000000D+00 -.419095158577D-08  .187000000000D+03
     .316806000000D+06  .400000000000D+01
31 11 11  9 18  0  0.0  .167143065482D-03  .522959453519D-11  .000000000000D+00
     .180000000000D+02 -.128000000000D+03  .374908473586D-08  .191431769394D+01
    -.649131834507D-05  .781083712354D-02  .818073749542D-05  .515377628517D+04
     .324000000000D+06  .113621354103D-06 -.722076640865D+00  .838190317154D-07
     .980507470095D+00  .228906250000D+03 -.948303062138D+00 -.766067624077D-08
    -.280011663610D-09  .100000000000D+01  .166100000000D+04  .000000000000D+00
     .240000000000D+01  .000000000000D+00 -.130385160446D-07  .180000000000D+02
     .316806000000D+06  .400000000000D+01
32 11 11  9 18  0  0.0 -.359079800546D-03 -.602540239925D-11  .000000000000D+00
     .790000000000D+02  .134375000000D+03  .444947105261D-08  .268844455191D+01
     .693462789059D-05  .121420649812D-01  .853650271893D-05  .515353926277D+04
     .324000000000D+06  .577419996262D-07 -.274369600682D+01  .238418579102D-06
     .953786806169D+00  .208437500000D+03 -.692371392916D+00 -.794497379719D-08
     .110718897601D-09  .100000000000D+01  .166100000000D+04  .000000000000D+00
     .340000000000D+01  .000000000000D+00 -.279396772385D-08  .790000000000D+02
     .316806000000D+06  .400000000000D+01
 9 11 11  9 17 59 44.0  .117267481983D-03  .250111042988D-11  .000000000000D+00
     .410000000000D+02 -.112593750000D+03  .380194408052D-08  .125643727481D+01
    -.612065196037D-05  .171579986345D-01  .775605440140D-05  .515365605354D+04
     .323984000000D+06 -.135973095894D-06 -.751306737410D+00 -.372529029846D-06
     .984207233805D+00  .245593750000D+03  .160102011483D+01 -.792711591048D-08
    -.212508851847D-09  .100000000000D+01  .166100000000D+04  .000000000000D+00
     .240000000000D+01  .000000000000D+00 -.558793544769D-08  .410000000000D+02
     .316986000000D+06  .400000000000D+01
10 11 11  9 17 59 44.0 -.185989774764D-04 -.113686837722D-11  .000000000000D+00
     .110000000000D+02  .106031250000D+03  .472733976982D-08 -.537067736056D+00
     .552460551262D-05  .107200228376D-01  .835210084915D-05  .515365007401D+04
     .323984000000D+06  .447034835815D-07 -.280993682773D+01  .184401869774D-06
     .948030725308D+00  .210718750000D+03  .715315642076D+00 -.828355932921D-08
     .328585115460D-10  .100000000000D+01  .166100000000D+04  .000000000000D+00
     .240000000000D+01  .000000000000D+00 -.279396772385D-08  .110000000000D+02
     .316986000000D+06  .400000000000D+01
32 11 11  9 17 59 44.0 -.359077937901D-03 -.602540239925D-11  .000000000000D+00
     .130000000000D+02  .134375000000D+03  .444947105261D-08  .268611084355D+01
     .693462789059D-05  .121420602081D-01  .853650271893D-05  .515353927422D+04
     .323984000000D+06  .577419996262D-07 -.274369587077D+01  .238418579102D-06
     .953786791540D+00  .208437500000D+03 -.692371685500D+00 -.794497379719D-08
     .110718897601D-09  .100000000000D+01  .166100000000D+04  .000000000000D+00
     .240000000000D+01  .000000000000D+00 -.279396772385D-08  .130000000000D+02
     .317166000000D+06  .400000000000D+01
 8 11 11  9 17 59 44.0  .451691448689D-07  .000000000000D+00  .000000000000D+00
     .100000000000D+03 -.109312500000D+03  .348371653935D-08  .140078661426D+01
    -.549666583538D-05  .121544233989D-01  .835768878460D-05  .515373700523D+04
     .323984000000D+06 -.111758708954D-06 -.645067424802D+00  .162050127983D-06
     .997368502116D+00  .240437500000D+03 -.300502300716D+01 -.753495671833D-08
    -.339657005220D-09  .100000000000D+01  .166100000000D+04  .000000000000D+00
     .240000000000D+01  .000000000000D+00 -.419095158577D-08  .100000000000D+03
     .320286000000D+06  .400000000000D+01
30 11 11  9 17 59 44.0  .525470823050D-04 -.750333128963D-11  .000000000000D+00
     .670000000000D+02 -.868750000000D+01  .434553815196D-08 -.139088393892D+01
    -.212341547012D-06  .116312113823D-01  .113751739264D-04  .515544752121D+04
     .323984000000D+06 -.800937414169D-07  .210027694691D+00  .298023223877D-06
     .957707296422D+00  .158875000000D+03  .158369955830D+01 -.789747181854D-08
     .547879964257D-09  .100000000000D+01  .166100000000D+04  .000000000000D+00
     .240000000000D+01  .000000000000D+00 -.419095158577D-08  .670000000000D+02
     .321666000000D+06  .400000000000D+01
11 11 11  9 17 59 44.0 -.202469062060D-03 -.352429196937D-11  .000000000000D+00
     .000000000000D+00 -.459062500000D+02  .643491089701D-08  .210613154945D+01
    -.252760946751D-05  .125854621874D-01  .754185020924D-05  .515366911888D+04
     .323984000000D+06 -.104308128357D-06  .214266385864D+01 -.312924385071D-06
     .887754705633D+00  .195218750000D+03  .997965602370D+00 -.878750889216D-08
    -.523593238331D-09  .100000000000D+01  .166100000000D+04  .000000000000D+00
     .240000000000D+01  .000000000000D+00 -.116415321827D-07  .000000000000D+00
     .323886000000D+06  .400000000000D+01
 8 11 11  9 19 59 44.0  .451691448689D-07  .000000000000D+00  .000000000000D+00
     .101000000000D+03 -.133312500000D+03  .336085427879D-08  .245062566203D+01
    -.681728124619D-05  .121529863682D-01  .910460948944D-05  .515374420357D+04
     .331184000000D+06 -.189989805222D-06 -.645121865835D+00  .316649675369D-07
     .997366244833D+00  .226718750000D+03 -.300472963795D+01 -.746888253751D-08
    -.302155443130D-09  .100000000000D+01  .166100000000D+04  .000000000000D+00
     .240000000000D+01  .000000000000D+00 -.419095158577D-08  .101000000000D+03
     .324006000000D+06  .400000000000D+01
11 11 11  9 19 59 44.0 -.202494207770D-03 -.352429196937D-11  .000000000000D+00
     .250000000000D+02 -.419687500000D+02  .636383650791D-08 -.312686165662D+01
    -.233948230743D-05  .125850178301D-01  .747106969357D-05  .515366988945D+04
     .331184000000D+06  .968575477600D-07  .214260134084D+01 -.240281224251D-06
     .887751321903D+00  .194875000000D+03  .997970539719D+00 -.868179020284D-08
    -.517164399116D-09  .100000000000D+01  .166100000000D+04  .000000000000D+00
     .240000000000D+01  .000000000000D+00 -.116415321827D-07  .250000000000D+02
     .324006000000D+06  .400000000000D+01
30 11 11  9 19 59 44.0  .524935312569D-04 -.750333128963D-11  .000000000000D+00
     .680000000000D+02 -.893750000000D+01  .433268047353D-08 -.341762211082D+00
    -.501051545143D-06  .116309811128D-01  .112149864435D-04  .515544767570D+04
     .331184000000D+06 -.201165676117D-06  .209969934296D+00  .109896063805D-06
     .957711006382D+00  .164437500000D+03  .158367355054D+01 -.800711924294D-08
     .562880589093D-09  .100000000000D+01  .166100000000D+04  .000000000000D+00
     .485000000000D+01  .000000000000D+00 -.419095158577D-08  .680000000000D+02
     .324006000000D+06  .400000000000D+01
32 11 11  9 19 59 44.0 -.359121244401D-03 -.602540239925D-11  .000000000000D+00
     .140000000000D+02  .136656250000D+03  .441268380599D-08 -.254677437138D+01
     .706687569618D-05  .121421060758D-01  .831112265587D-05  .515353924561D+04
     .331184000000D+06 -.763684511185D-07 -.274375311036D+01  .186264514923D-06
     .953787988207D+00  .214875000000D+03 -.692408559813D+00 -.790354350003D-08
     .166078346401D-09  .100000000000D+01  .166100000000D+04  .000000000000D+00
     .240000000000D+01  .000000000000D+00 -.279396772385D-08  .140000000000D+02
     .324006000000D+06  .400000000000D+01
 1 11 11  9 20  0  0.0  .840546563268D-04  .223963070312D-10  .000000000000D+00
     .700000000000D+02 -.112812500000D+02  .456626163170D-08  .237142207177D+01
    -.609084963799D-06  .485833268613D-03  .101402401924D-04  .515366547394D+04
     .331200000000D+06 -.558793544769D-08  .239785054122D+01 -.447034835815D-07
     .960237398611D+00  .185062500000D+03  .136354822473D+01 -.789211445253D-08
    -.545022702383D-09  .100000000000D+01  .166100000000D+04  .000000000000D+00
     .240000000000D+01  .000000000000D+00  .791624188423D-08  .700000000000D+02
     .324006000000D+06  .400000000000D+01
 2 11 11  9 20  0  0.0  .364848878235D-03  .181898940355D-11  .000000000000D+00
     .890000000000D+02 -.265000000000D+02  .508306887308D-08 -.178276488222D+01
    -.138953328133D-05  .106132146902D-01  .947155058384D-05  .515359698296D+04
     .331200000000D+06  .428408384323D-07  .238845159392D+01 -.158324837685D-06
     .938814404314D+00  .184187500000D+03 -.291650394663D+01 -.815248244076D-08
    -.385016037463D-09  .100000000000D+01  .166100000000D+04  .000000000000D+00
     .240000000000D+01  .000000000000D+00 -.176951289177D-07  .890000000000D+02
     .324006000000D+06  .400000000000D+01
 3 11 11  9 20  0  0.0  .792834442109D-03  .511590769747D-11  .000000000000D+00
     .560000000000D+02  .162187500000D+02  .563666336108D-08 -.162911961855D+01
     .106915831566D-05  .149093089858D-01  .412017107010D-05  .515367580223D+04
     .331200000000D+06  .324100255966D-06  .122733615497D+01  .968575477600D-07
     .929396199162D+00  .277406250000D+03  .115454498816D+01 -.848642492223D-08
     .311798701953D-09  .100000000000D+01  .166100000000D+04  .000000000000D+00
     .240000000000D+01  .000000000000D+00 -.465661287308D-08  .560000000000D+02
     .324006000000D+06  .400000000000D+01
